NORAD_CAT_ID,OBJECT_NAME,OBJECT_TYPE,EPOCH,MEAN_MOTION,ECCENTRICITY,INCLINATION,RA_OF_ASC_NODE,ARG_OF_PERICENTER,MEAN_ANOMALY,BSTAR,MEAN_MOTION_DOT,MEAN_MOTION_DDOT,TLE_LINE0,TLE_LINE1,TLE_LINE2,SEMIMAJOR_AXIS,PERIOD,APOGEE,PERIGEE,DECAYED
53628.0,STARLINK-4600,PAYLOAD,2024-06-19 05:16:56,15.08833586,0.0001212,53.215,174.9928,85.2124,274.9007,3.7329e-07,-2.82e-06,0.0,0 STARLINK-4600,1 53628U 22104AS  24171.22009655 -.00000282  00000-0  37329-6 0  9990,2 53628  53.2150 174.9928 0001212  85.2124 274.9007 15.08833586100197,6917.9,95.438,540.603,538.927,0.0
53628.0,STARLINK-4600,PAYLOAD,2024-06-19 10:03:05,15.08835441,0.0001217,53.2151,174.1003,86.9935,273.1196,9.7007e-06,-1.33e-06,0.0,0 STARLINK-4600,1 53628U 22104AS  24171.41881529 -.00000133  00000-0  97007-5 0  9992,2 53628  53.2151 174.1003 0001217  86.9935 273.1196 15.08835441100919,6917.894,95.438,540.601,538.917,0.0
53628.0,STARLINK-4600,PAYLOAD,2024-06-20 05:07:43,15.08839373,0.0001285,53.2153,170.5319,89.8713,270.2426,3.0051e-05,1.9e-06,0.0,0 STARLINK-4600,1 53628U 22104AS  24172.21369331  .00000190  00000-0  30051-4 0  9990,2 53628  53.2153 170.5319 0001285  89.8713 270.2426 15.08839373100341,6917.882,95.438,540.636,538.858,0.0
53628.0,STARLINK-4600,PAYLOAD,2024-06-20 06:43:06,15.08839692,0.0001274,53.2153,170.2349,88.4689,271.6449,3.2768e-05,2.34e-06,0.0,0 STARLINK-4600,1 53628U 22104AS  24172.27993303  .00000234  00000-0  32768-4 0  9994,2 53628  53.2153 170.2349 0001274  88.4689 271.6449 15.08839692101048,6917.881,95.438,540.628,538.865,0.0
53628.0,STARLINK-4600,PAYLOAD,2024-06-21 06:33:53,15.08838455,0.0001293,53.2156,165.7747,88.1823,271.9317,8.2654e-05,1.028e-05,0.0,0 STARLINK-4600,1 53628U 22104AS  24173.27353418  .00001028  00000-0  82654-4 0  9993,2 53628  53.2156 165.7747 0001293  88.1823 271.9317 15.08838455100503,6917.885,95.438,540.645,538.856,0.0
53628.0,STARLINK-4600,PAYLOAD,2024-06-21 22:27:45,15.08833633,0.0001383,53.2162,162.8031,91.5065,268.6086,2.7544e-05,1.5e-06,0.0,0 STARLINK-4600,1 53628U 22104AS  24173.93594096  .00000150  00000-0  27544-4 0  9997,2 53628  53.2162 162.8031 0001383  91.5065 268.6086 15.08833633101296,6917.9,95.438,540.722,538.808,0.0
53628.0,STARLINK-4600,PAYLOAD,2024-06-22 04:49:18,15.08832713,0.0001366,53.216,161.6119,88.9699,271.1449,-8.8524e-06,-4.29e-06,0.0,0 STARLINK-4600,1 53628U 22104AS  24174.20090383 -.00000429  00000-0 -88524-5 0  9995,2 53628  53.2160 161.6119 0001366  88.9699 271.1449 15.08832713100640,6917.903,95.438,540.713,538.823,0.0
53628.0,STARLINK-4600,PAYLOAD,2024-06-22 08:00:04,15.08833013,0.0001369,53.216,161.0171,88.6334,271.4815,-7.547e-06,-4.08e-06,0.0,0 STARLINK-4600,1 53628U 22104AS  24174.33338409 -.00000408  00000-0 -75470-5 0  9996,2 53628  53.2160 161.0171 0001369  88.6334 271.4815 15.08833013101351,6917.902,95.438,540.714,538.82,0.0
53628.0,STARLINK-4600,PAYLOAD,2024-06-23 04:40:04,15.08837493,0.000148,53.2161,157.15,98.8831,261.2329,7.4432e-05,8.97e-06,0.0,0 STARLINK-4600,1 53628U 22104AS  24175.19450023  .00000897  00000-0  74432-4 0  9994,2 53628  53.2161 157.1500 0001480  98.8831 261.2329 15.08837493100793,6917.888,95.438,540.777,538.729,0.0
53628.0,STARLINK-4600,PAYLOAD,2024-06-23 07:50:51,15.08838607,0.0001445,53.216,156.5554,94.903,265.2127,8.3171e-05,1.036e-05,0.0,0 STARLINK-4600,1 53628U 22104AS  24175.32697977  .00001036  00000-0  83171-4 0  9996,2 53628  53.2160 156.5554 0001445  94.9030 265.2127 15.08838607101501,6917.885,95.438,540.749,538.75,0.0
53628.0,STARLINK-4600,PAYLOAD,2024-06-24 07:41:37,15.08843113,0.0001421,53.2157,152.0941,94.7384,265.3771,0.00012356,1.679e-05,0.0,0 STARLINK-4600,1 53628U 22104AS  24176.32057675  .00001679  00000-0  12356-3 0  9991,2 53628  53.2157 152.0941 0001421  94.7384 265.3771 15.08843113100965,6917.871,95.437,540.719,538.753,0.0
53628.0,STARLINK-4600,PAYLOAD,2024-06-25 04:21:39,15.08839139,0.0001618,53.217,148.2224,80.2206,279.8969,1.4152e-05,-6.3e-07,0.0,0 STARLINK-4600,1 53628U 22104AS  24177.18170329 -.00000063  00000-0  14152-4 0  9992,2 53628  53.2170 148.2224 0001618  80.2206 279.8969 15.08839139101099,6917.883,95.438,540.867,538.629,0.0
53628.0,STARLINK-4600,PAYLOAD,2024-06-26 04:12:25,15.08844776,0.0001483,53.2164,143.7666,97.7869,262.3292,3.7104e-05,3.03e-06,0.0,0 STARLINK-4600,1 53628U 22104AS  24178.17529775  .00000303  00000-0  37104-4 0  9993,2 53628  53.2164 143.7666 0001483  97.7869 262.3292 15.08844776101932,6917.866,95.437,540.757,538.705,0.0
53628.0,STARLINK-4600,PAYLOAD,2024-06-27 04:03:12,15.08842501,0.0001436,53.2171,139.3058,100.2372,259.8782,7.9404e-05,9.76e-06,0.0,0 STARLINK-4600,1 53628U 22104AS  24179.16889809  .00000976  00000-0  79404-4 0  9995,2 53628  53.2171 139.3058 0001436 100.2372 259.8782 15.08842501102089,6917.873,95.437,540.731,538.744,0.0
53628.0,STARLINK-4600,PAYLOAD,2024-06-28 03:54:00,15.08840715,0.0001283,53.2146,134.8468,92.5224,267.5915,5.4787e-05,5.84e-06,0.0,0 STARLINK-4600,1 53628U 22104AS  24180.16250231  .00000584  00000-0  54787-4 0  9990,2 53628  53.2146 134.8468 0001283  92.5224 267.5915 15.08840715101544,6917.878,95.438,540.631,538.856,0.0
53628.0,STARLINK-4600,PAYLOAD,2024-06-28 13:26:18,15.08846105,0.0001295,53.2154,133.0631,95.1995,264.9145,8.6193e-05,1.084e-05,0.0,0 STARLINK-4600,1 53628U 22104AS  24180.55993801  .00001084  00000-0  86193-4 0  9992,2 53628  53.2154 133.0631 0001295  95.1995 264.9145 15.08846105102291,6917.862,95.437,540.623,538.831,0.0
53628.0,STARLINK-4600,PAYLOAD,2024-06-29 03:44:46,15.08853246,0.0001255,53.2148,130.3909,103.0209,257.0923,0.00012542,1.709e-05,0.0,0 STARLINK-4600,1 53628U 22104AS  24181.15609239  .00001709  00000-0  12542-3 0  9998,2 53628  53.2148 130.3909 0001255 103.0209 257.0923 15.08853246101699,6917.84,95.437,540.573,538.837,0.0
53628.0,STARLINK-4600,PAYLOAD,2024-06-29 13:17:05,15.08845209,0.0001262,53.2143,128.5985,73.0196,287.0934,0.00014084,1.955e-05,0.0,0 STARLINK-4600,1 53628U 22104AS  24181.55353570  .00001955  00000-0  14084-3 0  9992,2 53628  53.2143 128.5985 0001262  73.0196 287.0934 15.08845209101758,6917.864,95.437,540.603,538.856,0.0
53628.0,STARLINK-4600,PAYLOAD,2024-06-30 03:35:35,15.08823386,0.0001497,53.2163,125.9324,106.5432,253.5725,-6.2212e-05,-1.277e-05,0.0,0 STARLINK-4600,1 53628U 22104AS  24182.14971984 -.00001277  00000-0 -62212-4 0  9999,2 53628  53.2163 125.9324 0001497 106.5432 253.5725 15.08823386101841,6917.931,95.439,540.832,538.761,0.0
53628.0,STARLINK-4600,PAYLOAD,2024-06-30 06:46:21,15.08829493,0.0001283,53.2153,125.3323,85.9351,274.1788,-4.6865e-06,-3.62e-06,0.0,0 STARLINK-4600,1 53628U 22104AS  24182.28219512 -.00000362  00000-0 -46865-5 0  9997,2 53628  53.2153 125.3323 0001283  85.9351 274.1788 15.08829493102558,6917.913,95.438,540.665,538.89,0.0
53628.0,STARLINK-4600,PAYLOAD,2024-07-01 03:26:21,15.08848384,0.0001426,53.2147,121.4658,78.3407,281.7745,6.7092e-05,7.8e-06,0.0,0 STARLINK-4600,1 53628U 22104AS  24183.14330253  .00000780  00000-0  67092-4 0  9995,2 53628  53.2147 121.4658 0001426  78.3407 281.7745 15.08848384101990,6917.855,95.437,540.706,538.733,0.0
53628.0,STARLINK-4600,PAYLOAD,2024-07-01 12:58:40,15.08849648,0.0001444,53.2149,119.6817,76.1898,283.9254,0.0001247,1.698e-05,0.0,0 STARLINK-4600,1 53628U 22104AS  24183.54074158  .00001698  00000-0  12470-3 0  9996,2 53628  53.2149 119.6817 0001444  76.1898 283.9254 15.08849648102745,6917.851,95.437,540.715,538.717,0.0
53628.0,STARLINK-4600,PAYLOAD,2024-07-01 19:20:13,15.08839417,0.0001903,53.2134,118.4964,78.3257,281.7949,0.00023077,3.386e-05,0.0,0 STARLINK-4600,1 53628U 22104AS  24183.80570931  .00003386  00000-0  23077-3 0  9996,2 53628  53.2134 118.4964 0001903  78.3257 281.7949 15.08839417102090,6917.882,95.438,541.064,538.431,0.0
53628.0,STARLINK-4600,PAYLOAD,2024-07-02 01:41:46,15.08834107,0.0001544,53.2149,117.3034,74.8,285.3162,9.2342e-05,1.182e-05,0.0,0 STARLINK-4600,1 53628U 22104AS  24184.07067311  .00001182  00000-0  92342-4 0  9993,2 53628  53.2149 117.3034 0001544  74.8000 285.3162 15.08834107102133,6917.898,95.438,540.832,538.695,0.0
53628.0,STARLINK-4600,PAYLOAD,2024-07-02 12:49:28,15.08839953,0.0001552,53.2156,115.2241,77.2841,282.8325,0.00021736,3.173e-05,0.0,0 STARLINK-4600,1 53628U 22104AS  24184.53435202  .00003173  00000-0  21736-3 0  9992,2 53628  53.2156 115.2241 0001552  77.2841 282.8325 15.08839953102897,6917.881,95.438,540.819,538.672,0.0
53628.0,STARLINK-4600,PAYLOAD,2024-07-02 23:57:09,15.08845353,0.0001267,53.214,113.1389,94.3982,265.7155,2.5241e-05,1.14e-06,0.0,0 STARLINK-4600,1 53628U 22104AS  24184.99802778  .00000114  00000-0  25241-4 0  9996,2 53628  53.2140 113.1389 0001267  94.3982 265.7155 15.08845353102273,6917.864,95.437,540.606,538.853,0.0
53628.0,STARLINK-4600,PAYLOAD,2024-07-03 22:12:33,15.08838972,0.0001483,53.2134,108.9773,91.2188,268.8974,0.00016621,2.358e-05,0.0,0 STARLINK-4600,1 53628U 22104AS  24185.92539197  .00002358  00000-0  16621-3 0  9995,2 53628  53.2134 108.9773 0001483  91.2188 268.8974 15.08838972103104,6917.884,95.438,540.774,538.723,0.0
53628.0,STARLINK-4600,PAYLOAD,2024-07-04 04:34:05,15.08844778,0.0001442,53.2159,107.7849,109.1439,250.9709,0.00011058,1.473e-05,0.0,0 STARLINK-4600,1 53628U 22104AS  24186.19034695  .00001473  00000-0  11058-3 0  9994,2 53628  53.2159 107.7849 0001442 109.1439 250.9709 15.08844778102451,6917.866,95.437,540.728,538.733,0.0
53628.0,STARLINK-4600,PAYLOAD,2024-07-04 22:03:20,15.08837418,0.0001431,53.2164,104.5108,115.5871,244.5269,3.361e-05,2.47e-06,0.0,0 STARLINK-4600,1 53628U 22104AS  24186.91899166  .00000247  00000-0  33610-4 0  9993,2 53628  53.2164 104.5108 0001431 115.5871 244.5269 15.08837418103251,6917.888,95.438,540.743,538.763,0.0
53628.0,STARLINK-4600,PAYLOAD,2024-07-05 04:24:53,15.08841758,0.0001394,53.2156,103.3245,100.7503,259.3646,0.00011283,1.508e-05,0.0,0 STARLINK-4600,1 53628U 22104AS  24187.18395082  .00001508  00000-0  11283-3 0  9993,2 53628  53.2156 103.3245 0001394 100.7503 259.3646 15.08841758102600,6917.875,95.437,540.704,538.776,0.0
